[
    {
        "Altitude(m)": 604983.0528341229,
        "Argument of Periapsis(deg)": 0.0,
        "Eccentricity": 0.0,
        "Inclination(deg)": 60.0,
        "Latitude(deg)": -0.09253507173972,
        "Longitude(deg)": 85.08391641526784,
        "Mean Anomaly(deg)": 180.0,
        "RAAN(deg)": 5.0,
        "Satellite Name": "Test1 33",
        "Satellite Number": 33,
        "Semi-Major Axis(m)": 6980739.136638005,
        "Time(s)": 0
    },
    {
        "Altitude(m)": 605055.3315056688,
        "Argument of Periapsis(deg)": 0.00010418945913296404,
        "Eccentricity": 0.0,
        "Inclination(deg)": 60.0,
        "Latitude(deg)": -0.6329449053181384,
        "Longitude(deg)": 85.35204140443687,
        "Mean Anomaly(deg)": 180.62010614546185,
        "RAAN(deg)": 4.999579950860257,
        "Satellite Name": "Test1 33",
        "Satellite Number": 33,
        "Semi-Major Axis(m)": 6980739.136638005,
        "Time(s)": 10
    }
]